ONEWEB-0098             
1 45442U 20020U   25297.89578599  .00000564  00000+0  15560-2 0  9991
2 45442  87.8841  67.9174 0001682  99.4478 260.6840 13.11417049271804
ONEWEB-0055             
1 45443U 20020V   25297.87882459  .00000236  00000+0  62951-3 0  9996
2 45443  87.8842  67.9215 0001664  98.8256 261.3060 13.11419109271776
ONEWEB-0093             
1 45444U 20020W   25297.93067485 -.00000532  00000+0 -15383-2 0  9995
2 45444  87.8843  67.8972 0001127 100.8725 259.2530 13.11417280271840
ONEWEB-0029             
1 45445U 20020X   25297.87033541 -.00000168  00000+0 -50878-3 0  9999
2 45445  87.8843  67.9220 0001495 101.6609 258.4687 13.11419816271814
ONEWEB-0068             
1 45446U 20020Y   25297.85408953 -.00000541  00000+0 -15636-2 0  9998
2 45446  87.8844  67.9140 0001463 103.6463 256.4828 13.11417816271758
ONEWEB-0046             
1 45447U 20020Z   25297.92204449 -.00000356  00000+0 -10396-2 0  9993
2 45447  87.8837  67.9091 0001334  93.7658 266.3623 13.11417178271774
ONEWEB-0063             
1 45448U 20020AA  25297.87459200  .00000033  00000+0  58192-4 0  9993
2 45448  87.8842  67.9165 0001595  90.5539 269.5772 13.11418542271850
ONEWEB-0019             
1 45449U 20020AB  25297.92459931 -.00000369  00000+0 -10771-2 0  9994
2 45449  87.8834  67.9208 0001592 101.6473 258.4834 13.11415913271707
